OBJECT_NAME,OBJECT_ID,EPOCH,MEAN_MOTION,ECCENTRICITY,INCLINATION,RA_OF_ASC_NODE,ARG_OF_PERICENTER,MEAN_ANOMALY,EPHEMERIS_TYPE,CLASSIFICATION_TYPE,NORAD_CAT_ID,ELEMENT_SET_NO,REV_AT_EPOCH,BSTAR,MEAN_MOTION_DOT,MEAN_MOTION_DDOT
ONEWEB-0522,2022-138AD,2026-06-26T20:19:43.964832,13.19725240,.00017656,87.9186,303.0336,102.9576,257.1754,0,U,54140,999,17808,-.3038565E-4,.1E-7,0
ONEWEB-0523,2022-138AE,2026-06-26T22:52:59.208384,13.20771430,.00027202,87.9197,272.4947,90.1787,269.9658,0,U,54141,999,18059,-.22523622E-3,-.79E-6,0
ONEWEB-0524,2022-138AF,2026-06-26T19:00:15.997248,13.20771668,.0002843,87.9195,272.5236,108.1706,251.9738,0,U,54142,999,18057,-.25058745E-3,-.89E-6,0
ONEWEB-0525,2022-138AG,2026-06-26T20:47:00.433536,13.19725935,.00017453,87.9185,303.0370,111.6723,248.4595,0,U,54143,999,17810,-.14825832E-3,-.46E-6,0
ONEWEB-0526,2022-138AH,2026-06-26T21:34:46.185888,13.19725748,.00019145,87.9188,303.0314,104.2565,255.8780,0,U,54144,999,17808,-.21268161E-3,-.72E-6,0
ONEWEB-0529,2022-138AJ,2026-06-26T21:39:20.219904,13.19724431,.00018105,87.9178,303.0390,106.3237,253.8095,0,U,54145,999,17810,-.20090851E-3,-.67E-6,0
ONEWEB-0531,2022-138AK,2026-06-26T18:40:52.462272,13.20772791,.00024466,87.9196,272.5240,95.8505,264.2908,0,U,54146,999,18057,-.39712065E-4,-.3E-7,0
ONEWEB-0535,2022-138AL,2026-06-26T20:37:54.726816,13.19724883,.00021143,87.9187,303.0321,92.5836,267.5538,0,U,54147,999,17811,-.96843492E-4,-.26E-6,0
ONEWEB-0536,2022-138AM,2026-06-26T18:21:28.572192,13.20771369,.00030496,87.9184,272.5480,98.1222,262.0258,0,U,54148,999,18056,-.62591826E-4,-.12E-6,0
ONEWEB-0527,2022-166A,2026-06-26T22:35:43.898784,13.21823616,.00020569,87.9247,242.0565,100.1480,259.9886,0,U,54642,999,17282,-.2170863E-3,-.77E-6,0
ONEWEB-0528,2022-166B,2026-06-26T22:36:55.908864,13.21824683,.00019956,87.9248,242.0588,104.5543,255.5812,0,U,54643,999,17283,-.23919655E-4,.3E-7,0
ONEWEB-0539,2022-166C,2026-06-26T21:42:25.609248,13.21826708,.00019057,87.9257,242.0385,92.8366,267.2986,0,U,54644,999,17282,-.84001E-4,-.22E-6,0
ONEWEB-0540,2022-166D,2026-06-26T21:52:18.410016,13.21827099,.00020282,87.9245,242.0667,95.0480,265.0885,0,U,54645,999,17281,-.90711017E-4,-.24E-6,0
ONEWEB-0542,2022-166E,2026-06-26T21:56:58.061760,13.21824561,.0001898,87.9256,242.0353,91.0454,269.0898,0,U,54646,999,17282,.40312847E-4,.3E-6,0
ONEWEB-0545,2022-166F,2026-06-26T21:06:05.512608,13.21828777,.00018917,87.9246,242.0533,82.6004,277.5345,0,U,54647,999,17278,.91640328E-4,.51E-6,0
ONEWEB-0580,2022-166G,2026-06-26T22:18:43.715232,13.21827806,.000209,87.9246,242.0431,86.7192,273.4181,0,U,54648,999,17283,.16601822E-3,.82E-6,0
ONEWEB-0582,2022-166H,2026-06-26T21:30:19.075104,13.21827041,.0001952,87.9247,242.0424,85.4063,274.7293,0,U,54649,999,17280,.14581494E-3,.73E-6,0
ONEWEB-0583,2022-166J,2026-06-26T21:47:16.773792,13.21826339,.00020314,87.9243,242.0631,94.6826,265.4540,0,U,54650,999,17281,-.61753509E-3,-.242E-5,0
ONEWEB-0584,2022-166K,2026-06-26T22:16:19.610400,13.21836437,.00021368,87.9233,242.0445,94.8073,265.3305,0,U,54651,999,17280,.18774613E-2,.789E-5,0
ONEWEB-0585,2022-166L,2026-06-26T21:01:15.269088,13.21827067,.0002084,87.9250,242.0425,102.4842,257.6525,0,U,54652,999,17280,-.79532173E-4,-.2E-6,0
ONEWEB-0586,2022-166M,2026-06-26T21:20:38.283936,13.21824581,.00019533,87.9247,242.0652,94.1248,266.0110,0,U,54653,999,17280,.49314453E-4,.33E-6,0
ONEWEB-0587,2022-166N,2026-06-26T21:35:10.348512,13.21824635,.00022392,87.9260,242.0378,106.5986,253.5394,0,U,54654,999,17296,.657575E-6,.13E-6,0
ONEWEB-0589,2022-166P,2026-06-26T21:15:47.684448,13.21824094,.00020898,87.9244,242.0514,73.7655,286.3708,0,U,54655,999,17282,-.25405681E-4,.3E-7,0
ONEWEB-0590,2022-166Q,2026-06-26T21:51:54.637920,13.21827643,.00024991,87.9254,242.0374,94.3379,265.8040,0,U,54656,999,17281,-.54584402E-4,-.1E-6,0
ONEWEB-0591,2022-166R,2026-06-26T22:09:05.007168,13.21826802,.00021094,87.9247,242.0489,96.7790,263.3584,0,U,54657,999,17284,.10485193E-3,.56E-6,0
ONEWEB-0592,2022-166S,2026-06-26T22:13:53.754240,13.21827986,.00020605,87.9255,242.0272,97.8830,262.2538,0,U,54658,999,17272,-.26315428E-3,-.96E-6,0
ONEWEB-0593,2022-166T,2026-06-26T20:56:24.370656,13.21825347,.0001902,87.9246,242.0490,96.0053,264.1298,0,U,54659,999,17282,-.12156882E-3,-.37E-6,0
ONEWEB-0594,2022-166U,2026-06-26T21:25:27.802560,13.21828027,.00020059,87.9245,242.0612,102.7160,257.4198,0,U,54660,999,17284,.76328404E-4,.45E-6,0
ONEWEB-0595,2022-166V,2026-06-26T17:13:33.417696,13.21824252,.0002224,87.9258,242.0774,103.0624,257.0758,0,U,54661,999,17279,-.34004918E-3,-.127E-5,0
ONEWEB-0596,2022-166W,2026-06-26T14:48:12.982752,13.21827586,.00021306,87.9249,242.1082,100.0377,260.0998,0,U,54662,999,17278,-.19025475E-3,-.66E-6,0
