ONEWEB-0522             
1 54140U 22138AD  26177.84703663  .00000001  00000+0 -30386-4 0  9995
2 54140  87.9186 303.0336 0001765 102.9576 257.1754 13.19725240178081
ONEWEB-0523             
1 54141U 22138AE  26177.95346306 -.00000079  00000+0 -22524-3 0  9995
2 54141  87.9197 272.4947 0002720  90.1787 269.9658 13.20771430180592
ONEWEB-0524             
1 54142U 22138AF  26177.79185182 -.00000089  00000+0 -25059-3 0  9998
2 54142  87.9195 272.5236 0002843 108.1706 251.9738 13.20771668180571
ONEWEB-0525             
1 54143U 22138AG  26177.86597724 -.00000046  00000+0 -14826-3 0  9999
2 54143  87.9185 303.0370 0001745 111.6723 248.4595 13.19725935178100
ONEWEB-0526             
1 54144U 22138AH  26177.89914567 -.00000072  00000+0 -21268-3 0  9998
2 54144  87.9188 303.0314 0001914 104.2565 255.8780 13.19725748178089
ONEWEB-0529             
1 54145U 22138AJ  26177.90231736 -.00000067  00000+0 -20091-3 0  9998
2 54145  87.9178 303.0390 0001810 106.3237 253.8095 13.19724431178105
ONEWEB-0531             
1 54146U 22138AK  26177.77838498 -.00000003  00000+0 -39712-4 0  9993
2 54146  87.9196 272.5240 0002446  95.8505 264.2908 13.20772791180573
ONEWEB-0535             
1 54147U 22138AL  26177.85966119 -.00000026  00000+0 -96843-4 0  9998
2 54147  87.9187 303.0321 0002114  92.5836 267.5538 13.19724883178116
ONEWEB-0536             
1 54148U 22138AM  26177.76491403 -.00000012  00000+0 -62592-4 0  9997
2 54148  87.9184 272.5480 0003049  98.1222 262.0258 13.20771369180563
ONEWEB-0527             
1 54642U 22166A   26177.94148031 -.00000077  00000+0 -21709-3 0  9998
2 54642  87.9247 242.0565 0002056 100.1480 259.9886 13.21823616172821
ONEWEB-0528             
1 54643U 22166B   26177.94231376  .00000003  00000+0 -23920-4 0  9990
2 54643  87.9248 242.0588 0001995 104.5543 255.5812 13.21824683172834
ONEWEB-0539             
1 54644U 22166C   26177.90446307 -.00000022  00000+0 -84001-4 0  9998
2 54644  87.9257 242.0385 0001905  92.8366 267.2986 13.21826708172824
ONEWEB-0540             
1 54645U 22166D   26177.91132419 -.00000024  00000+0 -90711-4 0  9993
2 54645  87.9245 242.0667 0002028  95.0480 265.0885 13.21827099172811
ONEWEB-0542             
1 54646U 22166E   26177.91456090  .00000030  00000+0  40313-4 0  9996
2 54646  87.9256 242.0353 0001898  91.0454 269.0898 13.21824561172827
ONEWEB-0545             
1 54647U 22166F   26177.87923047  .00000051  00000+0  91640-4 0  9995
2 54647  87.9246 242.0533 0001891  82.6004 277.5345 13.21828777172786
ONEWEB-0580             
1 54648U 22166G   26177.92967263  .00000082  00000+0  16602-3 0  9998
2 54648  87.9246 242.0431 0002090  86.7192 273.4181 13.21827806172830
ONEWEB-0582             
1 54649U 22166H   26177.89605411  .00000073  00000+0  14581-3 0  9993
2 54649  87.9247 242.0424 0001952  85.4063 274.7293 13.21827041172809
ONEWEB-0583             
1 54650U 22166J   26177.90783303 -.00000242  00000+0 -61754-3 0  9998
2 54650  87.9243 242.0631 0002031  94.6826 265.4540 13.21826339172817
ONEWEB-0584             
1 54651U 22166K   26177.92800475  .00000789  00000+0  18775-2 0  9999
2 54651  87.9233 242.0445 0002136  94.8073 265.3305 13.21836437172809
ONEWEB-0585             
1 54652U 22166L   26177.87587117 -.00000020  00000+0 -79532-4 0  9999
2 54652  87.9250 242.0425 0002084 102.4842 257.6525 13.21827067172806
ONEWEB-0586             
1 54653U 22166M   26177.88933199  .00000033  00000+0  49314-4 0  9993
2 54653  87.9247 242.0652 0001953  94.1248 266.0110 13.21824581172808
ONEWEB-0587             
1 54654U 22166N   26177.89942533  .00000013  00000+0  65758-6 0  9997
2 54654  87.9260 242.0378 0002239 106.5986 253.5394 13.21824635172966
ONEWEB-0589             
1 54655U 22166P   26177.88596857  .00000003  00000+0 -25406-4 0  9995
2 54655  87.9244 242.0514 0002089  73.7655 286.3708 13.21824094172829
ONEWEB-0590             
1 54656U 22166Q   26177.91104905 -.00000010  00000+0 -54584-4 0  9997
2 54656  87.9254 242.0374 0002499  94.3379 265.8040 13.21827643172815
ONEWEB-0591             
1 54657U 22166R   26177.92297462  .00000056  00000+0  10485-3 0  9999
2 54657  87.9247 242.0489 0002109  96.7790 263.3584 13.21826802172841
ONEWEB-0592             
1 54658U 22166S   26177.92631660 -.00000096  00000+0 -26315-3 0  9997
2 54658  87.9255 242.0272 0002060  97.8830 262.2538 13.21827986172722
ONEWEB-0593             
1 54659U 22166T   26177.87250429 -.00000037  00000+0 -12157-3 0  9996
2 54659  87.9246 242.0490 0001902  96.0053 264.1298 13.21825347172821
ONEWEB-0594             
1 54660U 22166U   26177.89268290  .00000045  00000+0  76328-4 0  9993
2 54660  87.9245 242.0612 0002005 102.7160 257.4198 13.21828027172841
ONEWEB-0595             
1 54661U 22166V   26177.71774789 -.00000127  00000+0 -34005-3 0  9998
2 54661  87.9258 242.0774 0002224 103.0624 257.0758 13.21824252172795
ONEWEB-0596             
1 54662U 22166W   26177.61681693 -.00000066  00000+0 -19025-3 0  9996
2 54662  87.9249 242.1082 0002130 100.0377 260.0998 13.21827586172789
